CCSDS_OMM_VERS = 2.0
CREATION_DATE  = 
ORIGINATOR     = 

OBJECT_NAME    = STARLINK-37139
OBJECT_ID      = 2026-057Z
CENTER_NAME    = EARTH
REF_FRAME      = TEME
TIME_SYSTEM    = UTC
MEAN_ELEMENT_THEORY = SGP/SGP4

EPOCH          = 2026-03-28T20:00:01.999872
MEAN_MOTION    = 16.04191338
ECCENTRICITY   = .00011309
INCLINATION    = 97.2782
RA_OF_ASC_NODE = 210.9729
ARG_OF_PERICENTER = 81.7529
MEAN_ANOMALY   = 194.4132

EPHEMERIS_TYPE = 0
CLASSIFICATION_TYPE = U
NORAD_CAT_ID   = 68317
ELEMENT_SET_NO = 999
REV_AT_EPOCH   = 208
BSTAR          = -.18088844E-2
MEAN_MOTION_DOT = -.1163941E-1
MEAN_MOTION_DDOT = .45562517E-3

CCSDS_OMM_VERS = 2.0
CREATION_DATE  = 
ORIGINATOR     = 

OBJECT_NAME    = STARLINK-37113
OBJECT_ID      = 2026-057AA
CENTER_NAME    = EARTH
REF_FRAME      = TEME
TIME_SYSTEM    = UTC
MEAN_ELEMENT_THEORY = SGP/SGP4

EPOCH          = 2026-03-28T20:00:01.999872
MEAN_MOTION    = 16.04468956
ECCENTRICITY   = .00009647
INCLINATION    = 97.2782
RA_OF_ASC_NODE = 210.9756
ARG_OF_PERICENTER = 70.5301
MEAN_ANOMALY   = 211.7389

EPHEMERIS_TYPE = 0
CLASSIFICATION_TYPE = U
NORAD_CAT_ID   = 68318
ELEMENT_SET_NO = 999
REV_AT_EPOCH   = 233
BSTAR          = -.17595285E-2
MEAN_MOTION_DOT = -.1151235E-1
MEAN_MOTION_DDOT = .44795303E-3

CCSDS_OMM_VERS = 2.0
CREATION_DATE  = 
ORIGINATOR     = 

OBJECT_NAME    = PROGRESS-MS 33
OBJECT_ID      = 2026-058A
CENTER_NAME    = EARTH
REF_FRAME      = TEME
TIME_SYSTEM    = UTC
MEAN_ELEMENT_THEORY = SGP/SGP4

EPOCH          = 2026-03-30T03:57:49.771296
MEAN_MOTION    = 15.48649502
ECCENTRICITY   = .0006182
INCLINATION    = 51.6344
RA_OF_ASC_NODE = 331.1363
ARG_OF_PERICENTER = 249.8594
MEAN_ANOMALY   = 110.1729

EPHEMERIS_TYPE = 0
CLASSIFICATION_TYPE = U
NORAD_CAT_ID   = 68319
ELEMENT_SET_NO = 999
REV_AT_EPOCH   = 97
BSTAR          = .23377E-3
MEAN_MOTION_DOT = .12299E-3
MEAN_MOTION_DDOT = 0

CCSDS_OMM_VERS = 2.0
CREATION_DATE  = 
ORIGINATOR     = 

OBJECT_NAME    = CENTISPACE-1 OBJECT A
OBJECT_ID      = 2026-060A
CENTER_NAME    = EARTH
REF_FRAME      = TEME
TIME_SYSTEM    = UTC
MEAN_ELEMENT_THEORY = SGP/SGP4

EPOCH          = 2026-03-30T05:27:29.941632
MEAN_MOTION    = 14.74876969
ECCENTRICITY   = .0012943
INCLINATION    = 54.9836
RA_OF_ASC_NODE = 357.8401
ARG_OF_PERICENTER = 311.7098
MEAN_ANOMALY   = 48.2793

EPHEMERIS_TYPE = 0
CLASSIFICATION_TYPE = U
NORAD_CAT_ID   = 68350
ELEMENT_SET_NO = 999
REV_AT_EPOCH   = 112
BSTAR          = .4257E-4
MEAN_MOTION_DOT = .79E-6
MEAN_MOTION_DDOT = 0

CCSDS_OMM_VERS = 2.0
CREATION_DATE  = 
ORIGINATOR     = 

OBJECT_NAME    = CENTISPACE-1 OBJECT B
OBJECT_ID      = 2026-060B
CENTER_NAME    = EARTH
REF_FRAME      = TEME
TIME_SYSTEM    = UTC
MEAN_ELEMENT_THEORY = SGP/SGP4

EPOCH          = 2026-03-30T03:49:40.092384
MEAN_MOTION    = 14.74917531
ECCENTRICITY   = .0013105
INCLINATION    = 54.9831
RA_OF_ASC_NODE = 358.1131
ARG_OF_PERICENTER = 311.5641
MEAN_ANOMALY   = 48.4234

EPHEMERIS_TYPE = 0
CLASSIFICATION_TYPE = U
NORAD_CAT_ID   = 68351
ELEMENT_SET_NO = 999
REV_AT_EPOCH   = 111
BSTAR          = .42041E-4
MEAN_MOTION_DOT = .75E-6
MEAN_MOTION_DDOT = 0

CCSDS_OMM_VERS = 2.0
CREATION_DATE  = 
ORIGINATOR     = 

OBJECT_NAME    = CENTISPACE-1 OBJECT C
OBJECT_ID      = 2026-060C
CENTER_NAME    = EARTH
REF_FRAME      = TEME
TIME_SYSTEM    = UTC
MEAN_ELEMENT_THEORY = SGP/SGP4

EPOCH          = 2026-03-30T05:25:55.756992
MEAN_MOTION    = 14.75098090
ECCENTRICITY   = .0012574
INCLINATION    = 54.9833
RA_OF_ASC_NODE = 357.8282
ARG_OF_PERICENTER = 317.5199
MEAN_ANOMALY   = 42.4827

EPHEMERIS_TYPE = 0
CLASSIFICATION_TYPE = U
NORAD_CAT_ID   = 68352
ELEMENT_SET_NO = 999
REV_AT_EPOCH   = 112
BSTAR          = .42667E-4
MEAN_MOTION_DOT = .8E-6
MEAN_MOTION_DDOT = 0

CCSDS_OMM_VERS = 2.0
CREATION_DATE  = 
ORIGINATOR     = 

OBJECT_NAME    = CENTISPACE-1 OBJECT D
OBJECT_ID      = 2026-060D
CENTER_NAME    = EARTH
REF_FRAME      = TEME
TIME_SYSTEM    = UTC
MEAN_ELEMENT_THEORY = SGP/SGP4

EPOCH          = 2026-03-28T01:23:09.602592
MEAN_MOTION    = 14.75149317
ECCENTRICITY   = .0012484
INCLINATION    = 54.9867
RA_OF_ASC_NODE = 6.6935
ARG_OF_PERICENTER = 311.4708
MEAN_ANOMALY   = 48.5219

EPHEMERIS_TYPE = 0
CLASSIFICATION_TYPE = U
NORAD_CAT_ID   = 68353
ELEMENT_SET_NO = 999
REV_AT_EPOCH   = 80
BSTAR          = .36681E-4
MEAN_MOTION_DOT = .4E-6
MEAN_MOTION_DDOT = 0

CCSDS_OMM_VERS = 2.0
CREATION_DATE  = 
ORIGINATOR     = 

OBJECT_NAME    = CENTISPACE-1 OBJECT E
OBJECT_ID      = 2026-060E
CENTER_NAME    = EARTH
REF_FRAME      = TEME
TIME_SYSTEM    = UTC
MEAN_ELEMENT_THEORY = SGP/SGP4

EPOCH          = 2026-03-30T05:25:12.278784
MEAN_MOTION    = 14.75197335
ECCENTRICITY   = .0013311
INCLINATION    = 54.9775
RA_OF_ASC_NODE = 357.8294
ARG_OF_PERICENTER = 318.8420
MEAN_ANOMALY   = 41.1575

EPHEMERIS_TYPE = 0
CLASSIFICATION_TYPE = U
NORAD_CAT_ID   = 68354
ELEMENT_SET_NO = 999
REV_AT_EPOCH   = 112
BSTAR          = .41609E-4
MEAN_MOTION_DOT = .73E-6
MEAN_MOTION_DDOT = 0

CCSDS_OMM_VERS = 2.0
CREATION_DATE  = 
ORIGINATOR     = 

OBJECT_NAME    = CENTISPACE-1 OBJECT F
OBJECT_ID      = 2026-060F
CENTER_NAME    = EARTH
REF_FRAME      = TEME
TIME_SYSTEM    = UTC
MEAN_ELEMENT_THEORY = SGP/SGP4

EPOCH          = 2026-03-30T05:24:57.483648
MEAN_MOTION    = 14.75234688
ECCENTRICITY   = .0013701
INCLINATION    = 54.9780
RA_OF_ASC_NODE = 357.8276
ARG_OF_PERICENTER = 317.6212
MEAN_ANOMALY   = 42.3728

EPHEMERIS_TYPE = 0
CLASSIFICATION_TYPE = U
NORAD_CAT_ID   = 68355
ELEMENT_SET_NO = 999
REV_AT_EPOCH   = 112
BSTAR          = .42172E-4
MEAN_MOTION_DOT = .77E-6
MEAN_MOTION_DDOT = 0

CCSDS_OMM_VERS = 2.0
CREATION_DATE  = 
ORIGINATOR     = 

OBJECT_NAME    = CENTISPACE-1 OBJECT G
OBJECT_ID      = 2026-060G
CENTER_NAME    = EARTH
REF_FRAME      = TEME
TIME_SYSTEM    = UTC
MEAN_ELEMENT_THEORY = SGP/SGP4

EPOCH          = 2026-03-30T05:24:22.578912
MEAN_MOTION    = 14.75309159
ECCENTRICITY   = .0013839
INCLINATION    = 54.9899
RA_OF_ASC_NODE = 357.8228
ARG_OF_PERICENTER = 318.8864
MEAN_ANOMALY   = 41.1092

EPHEMERIS_TYPE = 0
CLASSIFICATION_TYPE = U
NORAD_CAT_ID   = 68356
ELEMENT_SET_NO = 999
REV_AT_EPOCH   = 112
BSTAR          = .42227E-4
MEAN_MOTION_DOT = .78E-6
MEAN_MOTION_DDOT = 0

CCSDS_OMM_VERS = 2.0
CREATION_DATE  = 
ORIGINATOR     = 

OBJECT_NAME    = CENTISPACE-1 OBJECT H
OBJECT_ID      = 2026-060H
CENTER_NAME    = EARTH
REF_FRAME      = TEME
TIME_SYSTEM    = UTC
MEAN_ELEMENT_THEORY = SGP/SGP4

EPOCH          = 2026-03-25T14:49:38.254368
MEAN_MOTION    = 14.75425125
ECCENTRICITY   = .00144709
INCLINATION    = 54.9848
RA_OF_ASC_NODE = 16.6351
ARG_OF_PERICENTER = 304.4277
MEAN_ANOMALY   = 55.5354

EPHEMERIS_TYPE = 0
CLASSIFICATION_TYPE = U
NORAD_CAT_ID   = 68357
ELEMENT_SET_NO = 999
REV_AT_EPOCH   = 44
BSTAR          = .33491501E-4
MEAN_MOTION_DOT = .19E-6
MEAN_MOTION_DDOT = 0

CCSDS_OMM_VERS = 2.0
CREATION_DATE  = 
ORIGINATOR     = 

OBJECT_NAME    = CENTISPACE-1 OBJECT J
OBJECT_ID      = 2026-060J
CENTER_NAME    = EARTH
REF_FRAME      = TEME
TIME_SYSTEM    = UTC
MEAN_ELEMENT_THEORY = SGP/SGP4

EPOCH          = 2026-03-25T14:49:37.060320
MEAN_MOTION    = 14.75435012
ECCENTRICITY   = .0013871
INCLINATION    = 54.9877
RA_OF_ASC_NODE = 16.6351
ARG_OF_PERICENTER = 306.1411
MEAN_ANOMALY   = 53.8304

EPHEMERIS_TYPE = 0
CLASSIFICATION_TYPE = U
NORAD_CAT_ID   = 68358
ELEMENT_SET_NO = 999
REV_AT_EPOCH   = 44
BSTAR          = .33263E-4
MEAN_MOTION_DOT = .17E-6
MEAN_MOTION_DDOT = 0

